STARLINK-3200           
1 49753U 21115AF  26166.42707443  .00000179  00000+0  29373-4 0  9994
2 49753  53.1606  70.2762 0001405  83.5562 276.5590 15.08829614250290
STARLINK-3193           
1 49754U 21115AG  26165.98640747 -.00000835  00000+0 -34400-4 0  9996
2 49754  53.1605  62.3651 0001385  83.5450 276.5699 15.08829739250368
STARLINK-3210           
1 49755U 21115AH  26166.04163784  .00000094  00000+0  24024-4 0  9992
2 49755  53.1592  72.0575 0001485  83.4545 276.6615 15.08828013250231
STARLINK-3207           
1 49756U 21115AJ  26165.92751146 -.00000634  00000+0 -21772-4 0  9993
2 49756  53.1590  62.5241 0001303  76.5702 283.5434 15.08831869250353
STARLINK-3197           
1 49757U 21115AK  26166.58350764 -.00000051  00000+0  14895-4 0  9998
2 49757  53.1597  59.5836 0001282  91.1179 268.9959 15.08836043250453
STARLINK-3194           
1 49758U 21115AL  26166.39855593 -.00000606  00000+0 -20015-4 0  9996
2 49758  53.1599  60.4042 0001274  90.4453 269.6685 15.08826597250428
STARLINK-3204           
1 49759U 21115AM  26165.99007405 -.00000521  00000+0 -14631-4 0  9996
2 49759  53.1601  62.2420 0001285  84.2005 275.9133 15.08829185250366
STARLINK-3199           
1 49760U 21115AN  26166.40591625 -.00000213  00000+0  47119-5 0  9992
2 49760  53.1590  60.3699 0001179  85.5921 274.5205 15.08827653250436
STARLINK-3203           
1 49761U 21115AP  26166.39487471 -.00000091  00000+0  12412-4 0  9995
2 49761  53.1597  60.4194 0001407  90.8188 269.2965 15.08828049250426
STARLINK-3195           
1 49762U 21115AQ  26166.01583386  .00000268  00000+0  34925-4 0  9995
2 49762  53.1592  62.1251 0001333  88.5045 271.6099 15.08828429250370
STARLINK-3198           
1 49763U 21115AR  26166.40223331 -.00000474  00000+0 -11717-4 0  9995
2 49763  53.1599  60.3826 0001271  74.6667 285.4465 15.08827183250436
STARLINK-3227           
1 49765U 21115AT  26166.66667824  .00070449  00000+0  38049-2 0  9996
2 49765  53.1600  59.1585 0000583 150.2253 188.4887 15.14090898  5751
STARLINK-3190           
1 49766U 21115AU  26166.42527842 -.00000520  00000+0 -14563-4 0  9998
2 49766  53.1601  60.2928 0001601  86.3946 273.7228 15.08836826250433
STARLINK-3192           
1 49767U 21115AV  26166.41695133 -.00004032  00000+0 -23534-3 0  9996
2 49767  53.1599  60.3231 0001509  98.5159 261.6003 15.08845835250433
STARLINK-3196           
1 49768U 21115AW  26165.96799446  .00000408  00000+0  43727-4 0  9996
2 49768  53.1600  62.3397 0001262  86.5938 273.5198 15.08830499250369
STARLINK-3208           
1 49769U 21115AX  26166.43264463 -.00002782  00000+0 -15684-3 0  9995
2 49769  53.1591  60.2989 0001488  86.3691 273.7471 15.08824132250438
STARLINK-3191           
1 49770U 21115AY  26166.43999246  .00000433  00000+0  45309-4 0  9998
2 49770  53.1603  60.2668 0001418  90.9913 269.1241 15.08836226251554
STARLINK-3201           
1 49771U 21115AZ  26165.97535051  .00000983  00000+0  79897-4 0  9996
2 49771  53.1605  62.3040 0001613 101.1894 258.9279 15.08833466250362
GLOBAL-12               
1 49772U 21115BA  26166.40089850  .00028060  00000+0  44000-3 0  9990
2 49772  53.1961  53.1298 0003185  65.4182 294.7162 15.53502197255626
GLOBAL-13               
1 49773U 21115BB  26165.98643505  .00019246  00000+0  39634-3 0  9999
2 49773  53.1985  65.0498 0003908 104.7375 255.4067 15.45969997255423
GSAT0223 (GALILEO 27)   
1 49809U 21116A   26162.13215269 -.00000065  00000+0  00000+0 0  9997
2 49809  57.1623 341.8389 0001404 187.4451 176.2704  1.70475860 28084
GSAT0224 (GALILEO 28)   
1 49810U 21116B   26165.45828332 -.00000078  00000+0  00000+0 0  9992
2 49810  57.1622 341.7473 0001118 160.2800 197.3797  1.70475791 28154
STPSAT-6                
1 49817U 21118A   26166.52208012 -.00000044  00000+0  00000+0 0  9990
2 49817   0.3169  85.3952 0001521 246.5967   8.1155  1.00273053 16558
GLOBAL-17               
1 49949U 21120A   26165.96540690  .00025798  00000+0  41712-3 0  9998
2 49949  41.9959  62.5329 0015455 242.6217 117.3055 15.52154913254554
GLOBAL-16               
1 49950U 21120B   26166.42687685  .00020220  00000+0  35357-3 0  9991
2 49950  41.9958  63.4805 0013453 237.5201 122.4343 15.50105193254579
IXPE                    
1 49954U 21121A   26166.66667824  .00009872  00000+0  53054-3 0  9999
2 49954   0.2308 329.1396 0007475  56.8726 247.7217 15.10238504  5336
SHIJIAN-6 05A (SJ-6 05A)
1 49961U 21122A   26166.52430823  .00002176  00000+0  18194-3 0  9996
2 49961  97.4080 135.1557 0003423 105.9632 254.1969 14.99471891248502
SHIJIAN-6 05B (SJ-6 05B)
1 49962U 21122B   26166.72303542  .00002242  00000+0  13452-3 0  9992
2 49962  97.3783 147.4010 0003074  72.4495 287.7071 15.11914471249529
EXPRESS AMU-7           
1 50001U 21123A   26166.57287869 -.00000241  00000+0  00000+0 0  9994
2 50001   0.0131 297.1951 0000695  44.2688 273.6260  1.00269626 16521
EXPRESS AMU-3           
1 50002U 21123B   26165.98286624  .00000000  00000+0  00000+0 0  9999
2 50002   0.0209 329.5636 0000188  62.3420 328.0956  1.00269503  7004
