OBJECT_NAME,OBJECT_ID,EPOCH,MEAN_MOTION,ECCENTRICITY,INCLINATION,RA_OF_ASC_NODE,ARG_OF_PERICENTER,MEAN_ANOMALY,EPHEMERIS_TYPE,CLASSIFICATION_TYPE,NORAD_CAT_ID,ELEMENT_SET_NO,REV_AT_EPOCH,BSTAR,MEAN_MOTION_DOT,MEAN_MOTION_DDOT
STARLINK-3200,2021-115AF,2026-06-15T10:14:59.230752,15.08829614,.00014054,53.1606,70.2762,83.5562,276.5590,0,U,49753,999,25029,.29373148E-4,.179E-5,0
STARLINK-3193,2021-115AG,2026-06-14T23:40:25.605408,15.08829739,.00013854,53.1605,62.3651,83.5450,276.5699,0,U,49754,999,25036,-.34399943E-4,-.835E-5,0
STARLINK-3210,2021-115AH,2026-06-15T00:59:57.509376,15.08828013,.0001485,53.1592,72.0575,83.4545,276.6615,0,U,49755,999,25023,.24023922E-4,.94E-6,0
STARLINK-3207,2021-115AJ,2026-06-14T22:15:36.990144,15.08831869,.0001303,53.1590,62.5241,76.5702,283.5434,0,U,49756,999,25035,-.21772E-4,-.634E-5,0
STARLINK-3197,2021-115AK,2026-06-15T14:00:15.060096,15.08836043,.00012828,53.1597,59.5836,91.1179,268.9959,0,U,49757,999,25045,.14894594E-4,-.51E-6,0
STARLINK-3194,2021-115AL,2026-06-15T09:33:55.232352,15.08826597,.00012742,53.1599,60.4042,90.4453,269.6685,0,U,49758,999,25042,-.20015058E-4,-.606E-5,0
STARLINK-3204,2021-115AM,2026-06-14T23:45:42.397920,15.08829185,.00012855,53.1601,62.2420,84.2005,275.9133,0,U,49759,999,25036,-.14631425E-4,-.521E-5,0
STARLINK-3199,2021-115AN,2026-06-15T09:44:31.164000,15.08827653,.00011797,53.1590,60.3699,85.5921,274.5205,0,U,49760,999,25043,.4711875E-5,-.213E-5,0
STARLINK-3203,2021-115AP,2026-06-15T09:28:37.174944,15.08828049,.00014071,53.1597,60.4194,90.8188,269.2965,0,U,49761,999,25042,.12411911E-4,-.91E-6,0
STARLINK-3195,2021-115AQ,2026-06-15T00:22:48.045504,15.08828429,.00013339,53.1592,62.1251,88.5045,271.6099,0,U,49762,999,25037,.34924714E-4,.268E-5,0
STARLINK-3198,2021-115AR,2026-06-15T09:39:12.957984,15.08827183,.00012719,53.1599,60.3826,74.6667,285.4465,0,U,49763,999,25043,-.11716718E-4,-.474E-5,0
STARLINK-3227,2021-115AT,2026-06-15T16:00:00.999936,15.14090898,.00005839,53.1600,59.1585,150.2253,188.4887,0,U,49765,999,575,.38048756E-2,.70449E-3,0
STARLINK-3190,2021-115AU,2026-06-15T10:12:24.055488,15.08836826,.00016011,53.1601,60.2928,86.3946,273.7228,0,U,49766,999,25043,-.1456252E-4,-.52E-5,0
STARLINK-3192,2021-115AV,2026-06-15T10:00:24.594912,15.08845835,.00015094,53.1599,60.3231,98.5159,261.6003,0,U,49767,999,25043,-.23533975E-3,-.4032E-4,0
STARLINK-3196,2021-115AW,2026-06-14T23:13:54.721344,15.08830499,.00012629,53.1600,62.3397,86.5938,273.5198,0,U,49768,999,25036,.4372702E-4,.408E-5,0
STARLINK-3208,2021-115AX,2026-06-15T10:23:00.496032,15.08824132,.00014881,53.1591,60.2989,86.3691,273.7471,0,U,49769,999,25043,-.1568377E-3,-.2782E-4,0
STARLINK-3191,2021-115AY,2026-06-15T10:33:35.348544,15.08836226,.00014189,53.1603,60.2668,90.9913,269.1241,0,U,49770,999,25155,.45308864E-4,.433E-5,0
STARLINK-3201,2021-115AZ,2026-06-14T23:24:30.284064,15.08833466,.00016136,53.1605,62.3040,101.1894,258.9279,0,U,49771,999,25036,.79896813E-4,.983E-5,0
GLOBAL-12,2021-115BA,2026-06-15T09:37:17.630400,15.53502197,.00031852,53.1961,53.1298,65.4182,294.7162,0,U,49772,999,25562,.4400031E-3,.2806E-3,0
GLOBAL-13,2021-115BB,2026-06-14T23:40:27.988320,15.45969997,.00039081,53.1985,65.0498,104.7375,255.4067,0,U,49773,999,25542,.39633876E-3,.19246E-3,0
GSAT0223 (GALILEO 27),2021-116A,2026-06-11T03:10:17.992416,1.70475860,.00014044,57.1623,341.8389,187.4451,176.2704,0,U,49809,999,2808,0,-.65E-6,0
GSAT0224 (GALILEO 28),2021-116B,2026-06-14T10:59:55.678848,1.70475791,.00011186,57.1622,341.7473,160.2800,197.3797,0,U,49810,999,2815,0,-.78E-6,0
STPSAT-6,2021-118A,2026-06-15T12:31:47.722368,1.00273053,.00015213,0.3169,85.3952,246.5967,8.1155,0,U,49817,999,1655,0,-.44E-6,0
GLOBAL-17,2021-120A,2026-06-14T23:10:11.156160,15.52154913,.00154557,41.9959,62.5329,242.6217,117.3055,0,U,49949,999,25455,.41711516E-3,.25798E-3,0
GLOBAL-16,2021-120B,2026-06-15T10:14:42.159840,15.50105193,.00134533,41.9958,63.4805,237.5201,122.4343,0,U,49950,999,25457,.35356717E-3,.2022E-3,0
IXPE,2021-121A,2026-06-15T16:00:00.999936,15.10238504,.00074751,0.2308,329.1396,56.8726,247.7217,0,U,49954,999,533,.53053634E-3,.9872E-4,0
SHIJIAN-6 05A (SJ-6 05A),2021-122A,2026-06-15T12:35:00.231072,14.99471891,.0003423,97.4080,135.1557,105.9632,254.1969,0,U,49961,999,24850,.18194E-3,.2176E-4,0
SHIJIAN-6 05B (SJ-6 05B),2021-122B,2026-06-15T17:21:10.260288,15.11914471,.0003074,97.3783,147.4010,72.4495,287.7071,0,U,49962,999,24952,.13452E-3,.2242E-4,0
EXPRESS AMU-7,2021-123A,2026-06-15T13:44:56.718816,1.00269626,.00006952,0.0131,297.1951,44.2688,273.6260,0,U,50001,999,1652,0,-.241E-5,0
EXPRESS AMU-3,2021-123B,2026-06-14T23:35:19.643136,1.00269503,.00001885,0.0209,329.5636,62.3420,328.0956,0,U,50002,999,700,0,0,0
